[
    {
        "Altitude(m)": 607886.7045469142,
        "Argument of Periapsis(deg)": 0.0,
        "Eccentricity": 0.0,
        "Inclination(deg)": 60.0,
        "Latitude(deg)": 40.998479133051845,
        "Longitude(deg)": -175.02696263165757,
        "Mean Anomaly(deg)": 49.09089999999999,
        "RAAN(deg)": 255.0,
        "Satellite Name": "Test1 1125",
        "Satellite Number": 1125,
        "Semi-Major Axis(m)": 6980739.136638005,
        "Time(s)": 0
    },
    {
        "Altitude(m)": 607987.6183985678,
        "Argument of Periapsis(deg)": 0.00010418945913296404,
        "Eccentricity": 0.0,
        "Inclination(deg)": 60.0,
        "Latitude(deg)": 41.463568614901234,
        "Longitude(deg)": -174.52273353359396,
        "Mean Anomaly(deg)": 49.711006145461795,
        "RAAN(deg)": 254.99957995086027,
        "Satellite Name": "Test1 1125",
        "Satellite Number": 1125,
        "Semi-Major Axis(m)": 6980739.136638005,
        "Time(s)": 10
    }
]